[{"OBJECT_NAME":"STARLINK-36144","OBJECT_ID":"2026-033J","EPOCH":"2026-03-15T14:00:01.999872","MEAN_MOTION":15.61750092,"ECCENTRICITY":0.00016665,"INCLINATION":42.9994,"RA_OF_ASC_NODE":235.7616,"ARG_OF_PERICENTER":259.6938,"MEAN_ANOMALY":58.447,"EPHEMERIS_TYPE":0,"CLASSIFICATION_TYPE":"U","NORAD_CAT_ID":67829,"ELEMENT_SET_NO":999,"REV_AT_EPOCH":561,"BSTAR":-0.024253706,"MEAN_MOTION_DOT":-0.01906137,"MEAN_MOTION_DDOT":0},{"OBJECT_NAME":"STARLINK-36611","OBJECT_ID":"2026-033K","EPOCH":"2026-03-15T14:00:01.999872","MEAN_MOTION":15.63925308,"ECCENTRICITY":0.00017776,"INCLINATION":42.9995,"RA_OF_ASC_NODE":235.6623,"ARG_OF_PERICENTER":267.1879,"MEAN_ANOMALY":90.9453,"EPHEMERIS_TYPE":0,"CLASSIFICATION_TYPE":"U","NORAD_CAT_ID":67830,"ELEMENT_SET_NO":999,"REV_AT_EPOCH":561,"BSTAR":-0.022572292,"MEAN_MOTION_DOT":-0.01930517,"MEAN_MOTION_DDOT":0},{"OBJECT_NAME":"STARLINK-36661","OBJECT_ID":"2026-033L","EPOCH":"2026-03-15T14:00:01.999872","MEAN_MOTION":15.58396502,"ECCENTRICITY":0.00014051,"INCLINATION":42.9988,"RA_OF_ASC_NODE":235.8993,"ARG_OF_PERICENTER":263.2434,"MEAN_ANOMALY":0.0233,"EPHEMERIS_TYPE":0,"CLASSIFICATION_TYPE":"U","NORAD_CAT_ID":67831,"ELEMENT_SET_NO":999,"REV_AT_EPOCH":561,"BSTAR":-0.027666757,"MEAN_MOTION_DOT":-0.01908929,"MEAN_MOTION_DDOT":0},{"OBJECT_NAME":"STARLINK-36662","OBJECT_ID":"2026-033M","EPOCH":"2026-03-15T14:00:01.999872","MEAN_MOTION":15.84168479,"ECCENTRICITY":0.00015824,"INCLINATION":42.9987,"RA_OF_ASC_NODE":234.2771,"ARG_OF_PERICENTER":264.2236,"MEAN_ANOMALY":284.429,"EPHEMERIS_TYPE":0,"CLASSIFICATION_TYPE":"U","NORAD_CAT_ID":67832,"ELEMENT_SET_NO":999,"REV_AT_EPOCH":561,"BSTAR":-0.0061347121,"MEAN_MOTION_DOT":-0.01265006,"MEAN_MOTION_DDOT":0},{"OBJECT_NAME":"STARLINK-36659","OBJECT_ID":"2026-033N","EPOCH":"2026-03-12T20:13:40.622592","MEAN_MOTION":15.81357226,"ECCENTRICITY":0.00018161,"INCLINATION":42.997,"RA_OF_ASC_NODE":252.0859,"ARG_OF_PERICENTER":307.9497,"MEAN_ANOMALY":52.121,"EPHEMERIS_TYPE":0,"CLASSIFICATION_TYPE":"U","NORAD_CAT_ID":67833,"ELEMENT_SET_NO":999,"REV_AT_EPOCH":512,"BSTAR":-0.0025045565,"MEAN_MOTION_DOT":-0.00484356,"MEAN_MOTION_DDOT":0},{"OBJECT_NAME":"STARLINK-36655","OBJECT_ID":"2026-033P","EPOCH":"2026-03-15T14:00:01.999872","MEAN_MOTION":15.63936952,"ECCENTRICITY":0.00018077,"INCLINATION":42.9994,"RA_OF_ASC_NODE":235.6306,"ARG_OF_PERICENTER":269.5533,"MEAN_ANOMALY":101.6196,"EPHEMERIS_TYPE":0,"CLASSIFICATION_TYPE":"U","NORAD_CAT_ID":67834,"ELEMENT_SET_NO":999,"REV_AT_EPOCH":561,"BSTAR":-0.022516007,"MEAN_MOTION_DOT":-0.01927082,"MEAN_MOTION_DDOT":0},{"OBJECT_NAME":"STARLINK-36657","OBJECT_ID":"2026-033Q","EPOCH":"2026-03-15T14:00:01.999872","MEAN_MOTION":15.68062029,"ECCENTRICITY":0.00016093,"INCLINATION":42.9992,"RA_OF_ASC_NODE":235.4775,"ARG_OF_PERICENTER":278.5001,"MEAN_ANOMALY":153.5966,"EPHEMERIS_TYPE":0,"CLASSIFICATION_TYPE":"U","NORAD_CAT_ID":67835,"ELEMENT_SET_NO":999,"REV_AT_EPOCH":561,"BSTAR":-0.019609917,"MEAN_MOTION_DOT":-0.01978142,"MEAN_MOTION_DDOT":0},{"OBJECT_NAME":"STARLINK-36650","OBJECT_ID":"2026-033R","EPOCH":"2026-03-15T14:00:01.999872","MEAN_MOTION":15.59609185,"ECCENTRICITY":0.00016607,"INCLINATION":42.9993,"RA_OF_ASC_NODE":235.7961,"ARG_OF_PERICENTER":268.7445,"MEAN_ANOMALY":35.2852,"EPHEMERIS_TYPE":0,"CLASSIFICATION_TYPE":"U","NORAD_CAT_ID":67836,"ELEMENT_SET_NO":999,"REV_AT_EPOCH":561,"BSTAR":-0.026970609,"MEAN_MOTION_DOT":-0.01944895,"MEAN_MOTION_DDOT":0},{"OBJECT_NAME":"STARLINK-36649","OBJECT_ID":"2026-033S","EPOCH":"2026-03-15T14:00:01.999872","MEAN_MOTION":15.63508287,"ECCENTRICITY":0.00017563,"INCLINATION":42.9995,"RA_OF_ASC_NODE":235.6142,"ARG_OF_PERICENTER":271.4573,"MEAN_ANOMALY":105.8287,"EPHEMERIS_TYPE":0,"CLASSIFICATION_TYPE":"U","NORAD_CAT_ID":67837,"ELEMENT_SET_NO":999,"REV_AT_EPOCH":561,"BSTAR":-0.022834273,"MEAN_MOTION_DOT":-0.01921817,"MEAN_MOTION_DDOT":0},{"OBJECT_NAME":"STARLINK-36654","OBJECT_ID":"2026-033T","EPOCH":"2026-03-15T14:00:01.999872","MEAN_MOTION":15.61499873,"ECCENTRICITY":0.00017248,"INCLINATION":42.9995,"RA_OF_ASC_NODE":235.6868,"ARG_OF_PERICENTER":271.0006,"MEAN_ANOMALY":76.7435,"EPHEMERIS_TYPE":0,"CLASSIFICATION_TYPE":"U","NORAD_CAT_ID":67838,"ELEMENT_SET_NO":999,"REV_AT_EPOCH":561,"BSTAR":-0.024837173,"MEAN_MOTION_DOT":-0.01929802,"MEAN_MOTION_DDOT":0},{"OBJECT_NAME":"STARLINK-36652","OBJECT_ID":"2026-033U","EPOCH":"2026-03-15T14:00:01.999872","MEAN_MOTION":15.59804728,"ECCENTRICITY":0.00016236,"INCLINATION":42.9993,"RA_OF_ASC_NODE":235.7539,"ARG_OF_PERICENTER":267.0749,"MEAN_ANOMALY":53.5365,"EPHEMERIS_TYPE":0,"CLASSIFICATION_TYPE":"U","NORAD_CAT_ID":67839,"ELEMENT_SET_NO":999,"REV_AT_EPOCH":561,"BSTAR":-0.026799629,"MEAN_MOTION_DOT":-0.01946912,"MEAN_MOTION_DDOT":0},{"OBJECT_NAME":"STARLINK-36651","OBJECT_ID":"2026-033V","EPOCH":"2026-03-15T14:00:01.999872","MEAN_MOTION":15.61317955,"ECCENTRICITY":0.00017398,"INCLINATION":42.9995,"RA_OF_ASC_NODE":235.673,"ARG_OF_PERICENTER":271.0663,"MEAN_ANOMALY":82.056,"EPHEMERIS_TYPE":0,"CLASSIFICATION_TYPE":"U","NORAD_CAT_ID":67840,"ELEMENT_SET_NO":999,"REV_AT_EPOCH":561,"BSTAR":-0.024875396,"MEAN_MOTION_DOT":-0.01920329,"MEAN_MOTION_DDOT":0},{"OBJECT_NAME":"STARLINK-36656","OBJECT_ID":"2026-033W","EPOCH":"2026-03-15T14:00:01.999872","MEAN_MOTION":15.62419942,"ECCENTRICITY":0.00017349,"INCLINATION":42.9995,"RA_OF_ASC_NODE":235.6158,"ARG_OF_PERICENTER":271.9596,"MEAN_ANOMALY":104.5239,"EPHEMERIS_TYPE":0,"CLASSIFICATION_TYPE":"U","NORAD_CAT_ID":67841,"ELEMENT_SET_NO":999,"REV_AT_EPOCH":561,"BSTAR":-0.023822961,"MEAN_MOTION_DOT":-0.01920473,"MEAN_MOTION_DDOT":0},{"OBJECT_NAME":"STARLINK-36653","OBJECT_ID":"2026-033X","EPOCH":"2026-03-15T14:00:01.999872","MEAN_MOTION":15.6140673,"ECCENTRICITY":0.00016671,"INCLINATION":42.9995,"RA_OF_ASC_NODE":235.6477,"ARG_OF_PERICENTER":272.0246,"MEAN_ANOMALY":91.3027,"EPHEMERIS_TYPE":0,"CLASSIFICATION_TYPE":"U","NORAD_CAT_ID":67842,"ELEMENT_SET_NO":999,"REV_AT_EPOCH":561,"BSTAR":-0.024744782,"MEAN_MOTION_DOT":-0.01917247,"MEAN_MOTION_DDOT":0},{"OBJECT_NAME":"STARLINK-36589","OBJECT_ID":"2026-033Y","EPOCH":"2026-03-15T14:00:01.999872","MEAN_MOTION":15.62461551,"ECCENTRICITY":0.00016978,"INCLINATION":42.9994,"RA_OF_ASC_NODE":235.5924,"ARG_OF_PERICENTER":271.9848,"MEAN_ANOMALY":113.7139,"EPHEMERIS_TYPE":0,"CLASSIFICATION_TYPE":"U","NORAD_CAT_ID":67843,"ELEMENT_SET_NO":999,"REV_AT_EPOCH":561,"BSTAR":-0.023827074,"MEAN_MOTION_DOT":-0.01923527,"MEAN_MOTION_DDOT":0},{"OBJECT_NAME":"STARLINK-36598","OBJECT_ID":"2026-033Z","EPOCH":"2026-03-15T14:00:01.999872","MEAN_MOTION":15.59245715,"ECCENTRICITY":0.00017388,"INCLINATION":42.9995,"RA_OF_ASC_NODE":235.7268,"ARG_OF_PERICENTER":270.6152,"MEAN_ANOMALY":60.6582,"EPHEMERIS_TYPE":0,"CLASSIFICATION_TYPE":"U","NORAD_CAT_ID":67844,"ELEMENT_SET_NO":999,"REV_AT_EPOCH":561,"BSTAR":-0.027150284,"MEAN_MOTION_DOT":-0.01932378,"MEAN_MOTION_DDOT":0}]
