STARLINK-36144          
1 67829U 26033J   26074.58335648 -.01906137  00000+0 -24254-1 0  9993
2 67829  42.9994 235.7616 0001666 259.6938  58.4470 15.61750092  5618
STARLINK-36611          
1 67830U 26033K   26074.58335648 -.01930517  00000+0 -22572-1 0  9995
2 67830  42.9995 235.6623 0001777 267.1879  90.9453 15.63925308  5617
STARLINK-36661          
1 67831U 26033L   26074.58335648 -.01908929  00000+0 -27667-1 0  9998
2 67831  42.9988 235.8993 0001405 263.2434   0.0233 15.58396502  5614
STARLINK-36662          
1 67832U 26033M   26074.58335648 -.01265006  00000+0 -61347-2 0  9995
2 67832  42.9987 234.2771 0001582 264.2236 284.4290 15.84168479  5618
STARLINK-36659          
1 67833U 26033N   26071.84283128 -.00484356  00000+0 -25046-2 0  9993
2 67833  42.9970 252.0859 0001816 307.9497  52.1210 15.81357226  5125
STARLINK-36655          
1 67834U 26033P   26074.58335648 -.01927082  00000+0 -22516-1 0  9990
2 67834  42.9994 235.6306 0001807 269.5533 101.6196 15.63936952  5616
STARLINK-36657          
1 67835U 26033Q   26074.58335648 -.01978142  00000+0 -19610-1 0  9995
2 67835  42.9992 235.4775 0001609 278.5001 153.5966 15.68062029  5614
STARLINK-36650          
1 67836U 26033R   26074.58335648 -.01944895  00000+0 -26971-1 0  9992
2 67836  42.9993 235.7961 0001660 268.7445  35.2852 15.59609185  5616
STARLINK-36649          
1 67837U 26033S   26074.58335648 -.01921817  00000+0 -22834-1 0  9996
2 67837  42.9995 235.6142 0001756 271.4573 105.8287 15.63508287  5610
STARLINK-36654          
1 67838U 26033T   26074.58335648 -.01929802  00000+0 -24837-1 0  9994
2 67838  42.9995 235.6868 0001724 271.0006  76.7435 15.61499873  5617
STARLINK-36652          
1 67839U 26033U   26074.58335648 -.01946912  00000+0 -26800-1 0  9998
2 67839  42.9993 235.7539 0001623 267.0749  53.5365 15.59804728  5610
STARLINK-36651          
1 67840U 26033V   26074.58335648 -.01920329  00000+0 -24875-1 0  9994
2 67840  42.9995 235.6730 0001739 271.0663  82.0560 15.61317955  5612
STARLINK-36656          
1 67841U 26033W   26074.58335648 -.01920473  00000+0 -23823-1 0  9997
2 67841  42.9995 235.6158 0001734 271.9596 104.5239 15.62419942  5619
STARLINK-36653          
1 67842U 26033X   26074.58335648 -.01917247  00000+0 -24745-1 0  9997
2 67842  42.9995 235.6477 0001667 272.0246  91.3027 15.61406730  5611
STARLINK-36589          
1 67843U 26033Y   26074.58335648 -.01923527  00000+0 -23827-1 0  9996
2 67843  42.9994 235.5924 0001697 271.9848 113.7139 15.62461551  5612
STARLINK-36598          
1 67844U 26033Z   26074.58335648 -.01932378  00000+0 -27150-1 0  9994
2 67844  42.9995 235.7268 0001738 270.6152  60.6582 15.59245715  5617
